[{"OBJECT_NAME":"SHIYAN-27 A","OBJECT_ID":"2025-078A","EPOCH":"2026-03-09T22:47:21.690240","MEAN_MOTION":13.572401,"ECCENTRICITY":7.091e-5,"INCLINATION":99.6939,"RA_OF_ASC_NODE":77.6579,"ARG_OF_PERICENTER":98.5837,"MEAN_ANOMALY":261.5381,"EPHEMERIS_TYPE":0,"CLASSIFICATION_TYPE":"U","NORAD_CAT_ID":63599,"ELEMENT_SET_NO":999,"REV_AT_EPOCH":4407,"BSTAR":8.1430355e-5,"MEAN_MOTION_DOT":1.4e-7,"MEAN_MOTION_DDOT":0},{"OBJECT_NAME":"THORAD AGENA D DEB","OBJECT_ID":"1970-025HM","EPOCH":"2026-03-09T11:22:04.248192","MEAN_MOTION":13.53500323,"ECCENTRICITY":0.00201956,"INCLINATION":100.2312,"RA_OF_ASC_NODE":255.1089,"ARG_OF_PERICENTER":330.8161,"MEAN_ANOMALY":84.7365,"EPHEMERIS_TYPE":0,"CLASSIFICATION_TYPE":"U","NORAD_CAT_ID":4991,"ELEMENT_SET_NO":999,"REV_AT_EPOCH":76100,"BSTAR":5.1676254e-5,"MEAN_MOTION_DOT":-1.3e-7,"MEAN_MOTION_DDOT":0}]
